LEMUR-2-ROUNDTRIPPER    
1 62711U 25009DG  26192.17818896  .00005683  00000+0  41354-3 0  9992
2 62711  97.7243 274.8263 0004386  72.6787 287.4918 15.04189188 81239
LEMUR-2-MYNAMEISJEFF    
1 62712U 25009DH  26191.04575780  .00006729  00000+0  48908-3 0  9994
2 62712  97.7289 274.0900 0003672 109.4233 250.7389 15.04168528 81063
LEMUR-2-LEIA-PHILIP     
1 63246U 25052AN  26191.52575551  .00001175  00000+0  10603-3 0  9995
2 63246  97.6815  83.0813 0005042 130.3106 229.8557 14.97385737 72165
LEMUR-2-LIA-MARTIN      
1 63248U 25052AQ  26192.52422219  .00003088  00000+0  26633-3 0  9995
2 63248  97.6877  84.5751 0005468  98.9391 261.2450 14.98010931 72321
LEMUR-2-DELOITTE-1      
1 63259U 25052BB  26189.69813140  .00002354  00000+0  20556-3 0  9991
2 63259  97.6884  82.1233 0002308  66.8273 293.3192 14.97751965 71914
LEMUR-2-EMERSONROSE     
1 63261U 25052BD  26192.18825411  .00003137  00000+0  26193-3 0  9999
2 63261  97.6884  85.1791 0002799  66.9250 293.2268 14.99267533 72334
LEMUR-2-MARACHE-FRAN    
1 63262U 25052BE  26192.14701198  .00002095  00000+0  17190-3 0  9990
2 63262  97.6854  85.5010 0004773 270.6525  89.4152 15.00300181 72352
LEMUR-2-THEFALCONER     
1 63264U 25052BG  26192.13309391  .00001609  00000+0  14280-3 0  9997
2 63264  97.6851  84.1157 0000537  13.5490 346.5747 14.97553031 72274
LEMUR-2-UNTITLED-SC     
1 63351U 25061A   26192.48387758  .00002314  00000+0  13201-3 0  9991
2 63351  97.5648 167.6723 0018820 175.6420 184.4979 15.13631223 71260
LEMUR-2-ESPERANZA       
1 63352U 25061B   26192.45947293  .00001978  00000+0  11309-3 0  9997
2 63352  97.5654 167.7473 0018414 174.9607 185.1813 15.13738952 71261
LEMUR-2-KREMPEL-BRO2    
1 63353U 25061C   26192.47949558  .00002421  00000+0  13587-3 0  9990
2 63353  97.5701 168.3316 0019606 167.6650 192.5066 15.14163514 71280
LEMUR-2-THERMORAPTOR    
1 63354U 25061D   26192.46025573  .00002133  00000+0  11987-3 0  9994
2 63354  97.5706 168.3927 0019376 166.6469 193.5280 15.14247229 71280
LEMUR-2-NEUROSPICY      
1 63355U 25061E   26192.49613770  .00002160  00000+0  12108-3 0  9996
2 63355  97.5634 168.0359 0017081 169.2701 190.8899 15.14364567 71298
LEMUR-2-TILLINFINITY    
1 63356U 25061F   26192.45598308  .00002069  00000+0  11415-3 0  9990
2 63356  97.5619 168.3034 0018679 158.2693 201.9336 15.14949104 71316
LEMUR-2-KREMPEL-BRO1    
1 63357U 25061G   26192.49861634  .00002119  00000+0  11743-3 0  9990
2 63357  97.5620 168.2550 0019270 159.4207 200.7805 15.14755828 71319
LEMUR-2-LANGER2SPACE    
1 63358U 25061H   26192.46392497  .00002222  00000+0  12413-3 0  9994
2 63358  97.5624 168.0248 0017035 167.8120 192.3528 15.14450351 71298
LEMUR-2-BALTO           
1 63395U 25052BH  26192.13149964  .00003005  00000+0  24423-3 0  9992
2 63395  97.6936  85.4699 0005344 344.4271  15.6787 15.00341013 72359
LEMUR-2-KRISH           
1 64561U 25135AK  26192.54958883  .00002698  00000+0  24302-3 0  9996
2 64561  97.7769 307.2625 0001668  96.7282 263.4129 14.96432599 57561
LEMUR-2-HUBBLE-4        
1 64565U 25135AP  26192.25576058  .00001103  00000+0  10968-3 0  9991
2 64565  97.7715 305.8817 0002359 173.3640 186.7611 14.93677887 57461
LEMUR-2-SEJONG-2        
1 64586U 25135BL  26192.50489977  .00002121  00000+0  18992-3 0  9991
2 64586  97.7702 307.3643 0003677 236.0324 124.0548 14.96894868 57584
LEMUR-2-HUBBLE-5        
1 64840U 25135BT  26192.26598904  .00001216  00000+0  11880-3 0  9991
2 64840  97.7736 306.5566 0004154 251.6228 108.4540 14.94206031 57503
LEMUR-2-KARENDARRELL    
1 64841U 25135BU  26189.86116779  .00004672  00000+0  37564-3 0  9996
2 64841  97.7693 306.0385 0011750 124.4354 235.7982 15.00440878 57261
LEMUR-2-LUCILLE-ROSE    
1 65403U 25135BV  26192.30205384  .00003789  00000+0  30527-3 0  9995
2 65403  97.7711 308.5126 0014402 200.9837 159.0798 15.00460384 52251
LEMUR-2-AFFIE-WAUWIE    
1 66295U 25248C   26192.44721466  .00012568  00000+0  45936-3 0  9994
2 66295  45.3896 343.4521 0008636 232.3245 127.6861 15.28146061 38300
OTTER SDM               
1 66678U 25276N   26192.14756245  .00004209  00000+0  19839-3 0  9996
2 66678  97.4208 265.2283 0004225 273.2415  86.8336 15.20026828 34050
LEMUR-2-STAS-GORBUK     
1 66686U 25276W   26191.50946469  .00003457  00000+0  16544-3 0  9997
2 66686  97.4241 264.6532 0003441 272.2364  87.8477 15.19628304 33957
LEMUR-2-TEODOR          
1 66768U 25276DG  26192.45425433  .00003268  00000+0  14913-3 0  9994
2 66768  97.4145 265.8492 0002289  91.3550 268.7948 15.21312240 34131
LEMUR-2-LAILA           
1 66776U 25276DQ  26189.72822619  .00003860  00000+0  17456-3 0  9999
2 66776  97.4166 263.2996 0002898 104.2252 255.9306 15.21517643 33727
LEMUR-2-CELIJO-SB-PK    
1 66781U 25276DW  26189.71530559  .00004042  00000+0  32738-3 0  9996
2 66781  97.5199 259.7831 0007336  80.2189 279.9863 15.00241883 25858
LEMUR-2-FINNIAN         
1 66782U 25276DX  26191.88755148  .00001778  00000+0  14533-3 0  9997
2 66782  97.5322 262.1409 0008491  17.3643 342.7870 15.00584478 23557
