OBJECT_NAME,OBJECT_ID,EPOCH,MEAN_MOTION,ECCENTRICITY,INCLINATION,RA_OF_ASC_NODE,ARG_OF_PERICENTER,MEAN_ANOMALY,EPHEMERIS_TYPE,CLASSIFICATION_TYPE,NORAD_CAT_ID,ELEMENT_SET_NO,REV_AT_EPOCH,BSTAR,MEAN_MOTION_DOT,MEAN_MOTION_DDOT
LEMUR-2-ROUNDTRIPPER,2025-009DG,2026-07-11T04:16:35.526144,15.04189188,.0004386,97.7243,274.8263,72.6787,287.4918,0,U,62711,999,8123,.41354E-3,.5683E-4,0
LEMUR-2-MYNAMEISJEFF,2025-009DH,2026-07-10T01:05:53.473920,15.04168528,.0003672,97.7289,274.0900,109.4233,250.7389,0,U,62712,999,8106,.48907697E-3,.6729E-4,0
LEMUR-2-LEIA-PHILIP,2025-052AN,2026-07-10T12:37:05.276064,14.97385737,.0005042,97.6815,83.0813,130.3106,229.8557,0,U,63246,999,7216,.10603E-3,.1175E-4,0
LEMUR-2-LIA-MARTIN,2025-052AQ,2026-07-11T12:34:52.797216,14.98010931,.0005468,97.6877,84.5751,98.9391,261.2450,0,U,63248,999,7232,.26633E-3,.3088E-4,0
LEMUR-2-DELOITTE-1,2025-052BB,2026-07-08T16:45:18.552960,14.97751965,.00023088,97.6884,82.1233,66.8273,293.3192,0,U,63259,999,7191,.20556086E-3,.2354E-4,0
LEMUR-2-EMERSONROSE,2025-052BD,2026-07-11T04:31:05.155104,14.99267533,.0002799,97.6884,85.1791,66.9250,293.2268,0,U,63261,999,7233,.26193E-3,.3137E-4,0
LEMUR-2-MARACHE-FRAN,2025-052BE,2026-07-11T03:31:41.835072,15.00300181,.0004773,97.6854,85.5010,270.6525,89.4152,0,U,63262,999,7235,.1719E-3,.2095E-4,0
LEMUR-2-THEFALCONER,2025-052BG,2026-07-11T03:11:39.313824,14.97553031,.0000537,97.6851,84.1157,13.5490,346.5747,0,U,63264,999,7227,.1428E-3,.1609E-4,0
LEMUR-2-UNTITLED-SC,2025-061A,2026-07-11T11:36:47.022912,15.13631223,.001882,97.5648,167.6723,175.6420,184.4979,0,U,63351,999,7126,.13201E-3,.2314E-4,0
LEMUR-2-ESPERANZA,2025-061B,2026-07-11T11:01:38.461152,15.13738952,.0018414,97.5654,167.7473,174.9607,185.1813,0,U,63352,999,7126,.11309E-3,.1978E-4,0
LEMUR-2-KREMPEL-BRO2,2025-061C,2026-07-11T11:30:28.418112,15.14163514,.0019606,97.5701,168.3316,167.6650,192.5066,0,U,63353,999,7128,.13587E-3,.2421E-4,0
LEMUR-2-THERMORAPTOR,2025-061D,2026-07-11T11:02:46.095072,15.14247229,.0019376,97.5706,168.3927,166.6469,193.5280,0,U,63354,999,7128,.11987E-3,.2133E-4,0
LEMUR-2-NEUROSPICY,2025-061E,2026-07-11T11:54:26.297280,15.14364567,.0017081,97.5634,168.0359,169.2701,190.8899,0,U,63355,999,7129,.12108E-3,.216E-4,0
LEMUR-2-TILLINFINITY,2025-061F,2026-07-11T10:56:36.938112,15.14949104,.0018679,97.5619,168.3034,158.2693,201.9336,0,U,63356,999,7131,.11415E-3,.2069E-4,0
LEMUR-2-KREMPEL-BRO1,2025-061G,2026-07-11T11:58:00.451776,15.14755828,.001927,97.5620,168.2550,159.4207,200.7805,0,U,63357,999,7131,.11743E-3,.2119E-4,0
LEMUR-2-LANGER2SPACE,2025-061H,2026-07-11T11:08:03.117408,15.14450351,.0017035,97.5624,168.0248,167.8120,192.3528,0,U,63358,999,7129,.12413E-3,.2222E-4,0
LEMUR-2-BALTO,2025-052BH,2026-07-11T03:09:21.568896,15.00341013,.0005344,97.6936,85.4699,344.4271,15.6787,0,U,63395,999,7235,.24423E-3,.3005E-4,0
LEMUR-2-KRISH,2025-135AK,2026-07-11T13:11:24.474912,14.96432599,.0001668,97.7769,307.2625,96.7282,263.4129,0,U,64561,999,5756,.24302E-3,.2698E-4,0
LEMUR-2-HUBBLE-4,2025-135AP,2026-07-11T06:08:17.714112,14.93677887,.0002359,97.7715,305.8817,173.3640,186.7611,0,U,64565,999,5746,.10968E-3,.1103E-4,0
LEMUR-2-SEJONG-2,2025-135BL,2026-07-11T12:07:03.340128,14.96894868,.0003677,97.7702,307.3643,236.0324,124.0548,0,U,64586,999,5758,.18992E-3,.2121E-4,0
LEMUR-2-HUBBLE-5,2025-135BT,2026-07-11T06:23:01.453056,14.94206031,.0004154,97.7736,306.5566,251.6228,108.4540,0,U,64840,999,5750,.1188E-3,.1216E-4,0
LEMUR-2-KARENDARRELL,2025-135BU,2026-07-08T20:40:04.897056,15.00440878,.00117501,97.7693,306.0385,124.4354,235.7982,0,U,64841,999,5726,.37563629E-3,.4672E-4,0
LEMUR-2-LUCILLE-ROSE,2025-135BV,2026-07-11T07:14:57.451776,15.00460384,.0014402,97.7711,308.5126,200.9837,159.0798,0,U,65403,999,5225,.30527E-3,.3789E-4,0
LEMUR-2-AFFIE-WAUWIE,2025-248C,2026-07-11T10:43:59.346624,15.28146061,.0008636,45.3896,343.4521,232.3245,127.6861,0,U,66295,999,3830,.45936E-3,.12568E-3,0
OTTER SDM,2025-276N,2026-07-11T03:32:29.395680,15.20026828,.0004225,97.4208,265.2283,273.2415,86.8336,0,U,66678,999,3405,.19839E-3,.4209E-4,0
LEMUR-2-STAS-GORBUK,2025-276W,2026-07-10T12:13:37.749216,15.19628304,.0003441,97.4241,264.6532,272.2364,87.8477,0,U,66686,999,3395,.16544E-3,.3457E-4,0
LEMUR-2-TEODOR,2025-276DG,2026-07-11T10:54:07.574112,15.21312240,.0002289,97.4145,265.8492,91.3550,268.7948,0,U,66768,999,3413,.14913E-3,.3268E-4,0
LEMUR-2-LAILA,2025-276DQ,2026-07-08T17:28:38.742816,15.21517643,.00028988,97.4166,263.2996,104.2252,255.9306,0,U,66776,999,3372,.17456123E-3,.386E-4,0
LEMUR-2-CELIJO-SB-PK,2025-276DW,2026-07-08T17:10:02.402976,15.00241883,.00073369,97.5199,259.7831,80.2189,279.9863,0,U,66781,999,2585,.32737877E-3,.4042E-4,0
LEMUR-2-FINNIAN,2025-276DX,2026-07-10T21:18:04.447872,15.00584478,.0008491,97.5322,262.1409,17.3643,342.7870,0,U,66782,999,2355,.14533E-3,.1778E-4,0
